satname,norad_id,inclination_deg,eccentricity,mean_motion_rev_per_day,perigee_km,apogee_km,l1,l2
STARLINK-1417,45693,53.0495,0.0006351,15.15698925,514.4772177469704,523.2377801595403,1 45693U 20035AN  26137.63683111  .00013132  00000+0  69594-3 0  9990,2 45693  53.0495 100.9936 0006351  70.0458 290.1218 15.15698925329347
STARLINK-1420,45695,53.0465,0.0006559,15.65823535,366.44464835542385,375.2979974734235,1 45695U 20035AQ  26137.71901801  .00035124  00000+0  34333-3 0  9998,2 45695  53.0465  45.9208 0006559  71.9869 288.1860 15.65823535330133
STARLINK-1422,45696,53.1566,0.0003545,15.33147956,464.00071314768866,468.8535091024769,1 45696U 20035AR  26137.57517319  .00015482  00000+0  48714-3 0  9993,2 45696  53.1566  89.1577 0003545  80.6511 279.4891 15.33147956329528
STARLINK-1351,45697,53.0448,0.0005825,15.64138004,371.7848646935008,379.6531069169632,1 45697U 20035AS  26137.33544769  .00048167  00000+0  50053-3 0  9992,2 45697  53.0448  47.9891 0005825  76.5387 283.6276 15.64138004330070
STARLINK-1400,45700,53.0441,0.0004909,15.61712194,379.3921262275062,386.029926819946,1 45700U 20035AV  26137.83693367  .00061121  00000+0  69558-3 0  9996,2 45700  53.0441  47.8237 0004909  42.9108 317.2287 15.61712194330117
STARLINK-1403,45701,53.1554,0.0002912,15.32151265,467.40112656559086,471.38912927689216,1 45701U 20035AW  26137.83454825  .00026016  00000+0  83534-3 0  9995,2 45701  53.1554  75.3376 0002912  93.1905 266.9430 15.32151265329739
STARLINK-1407,45703,53.0283,0.0002844,15.7042573,355.7637168644469,359.59504922312226,1 45703U 20035AY  26137.81528507  .00042052  00000+0  33988-3 0  9990,2 45703  53.0283 335.8730 0002844   2.1478 357.9550 15.70425730331129
STARLINK-1411,45706,53.0343,0.0001718,15.80680404,327.36315560330695,329.66756135367996,1 45706U 20035BB  26137.91670139  .00078195  00000+0  39958-3 0  9993,2 45706  53.0343 358.7679 0001718 191.5927 120.1956 15.80680404  5980
STARLINK-1423,45710,53.0441,0.0007475,15.66736761,363.2055516806022,373.29139796546224,1 45710U 20035BF  26137.76236454  .00034166  00000+0  32205-3 0  9997,2 45710  53.0441  45.2978 0007475  43.6991 316.4614 15.66736761330139
STARLINK-1433,45711,53.0449,0.00075,15.66345954,364.3099568375428,374.43121821883597,1 45711U 20035BG  26137.80593145  .00036830  00000+0  35211-3 0  9996,2 45711  53.0449  43.6181 0007500  49.2759 310.8906 15.66345954330164
STARLINK-1434,45712,53.0508,0.0004064,15.3255413,465.4127113759605,470.9774100749173,1 45712U 20035BH  26137.49009185  .00020926  00000+0  66613-3 0  9997,2 45712  53.0508  59.8229 0004064  48.3454 311.7894 15.32554130329926
STARLINK-1465,45731,53.0445,0.0001464,15.60629531,384.8472428963323,386.82773462664227,1 45731U 20038B   26137.71389110  .00043326  00000+0  51715-3 0  9991,2 45731  53.0445 249.1798 0001464 280.9181  79.1666 15.60629531327125
STARLINK-1471,45735,53.0432,0.000298,15.52416506,407.6501731192684,411.6957078437954,1 45735U 20038F   26137.79764637  .00014414  00000+0  23906-3 0  9991,2 45735  53.0432 169.9880 0002980  62.4529 297.6782 15.52416506328257
STARLINK-1480,45741,53.0492,0.0005124,15.62241972,377.71899970398954,384.64595030197324,1 45741U 20038M   26137.56484999  .00050743  00000+0  56745-3 0  9995,2 45741  53.0492 243.5402 0005124 320.0990  39.9646 15.62241972327201
STARLINK-1500,45744,53.0353,0.0002337,15.38191025,449.8625868468007,453.054739859851,1 45744U 20038Q   26137.68607656  .00013844  00000+0  37228-3 0  9994,2 45744  53.0353 228.1941 0002337  96.2354 263.8915 15.38191025327423
STARLINK-1504,45746,53.0187,0.000349,15.57588181,392.27582748930126,397.0032255047954,1 45746U 20038S   26137.49878881  .00019901  00000+0  27080-3 0  9990,2 45746  53.0187 169.0439 0003490  39.1582 320.9681 15.57588181328223
STARLINK-1506,45747,53.0749,0.0003614,15.27932437,479.51472439673944,484.4732270659988,1 45747U 20038T   26137.70463244  .00005739  00000+0  22029-3 0  9990,2 45747  53.0749 242.6645 0003614 110.6182 249.5205 15.27932437327236
STARLINK-1464,45751,53.0471,0.0002743,15.52602018,407.2704893486107,410.99398525219385,1 45751U 20038X   26137.44582964  .00034705  00000+0  55983-3 0  9997,2 45751  53.0471 235.5728 0002743 333.3573  26.7294 15.52602018327304
STARLINK-1477,45754,53.0488,0.0001127,15.17894727,511.42784434644364,512.9809272948078,1 45754U 20038AA  26137.71628664  .00013632  00000+0  67844-3 0  9993,2 45754  53.0488 258.3517 0001127 189.8847 170.2125 15.17894727327003
STARLINK-1478,45755,53.0455,0.0003201,15.65902241,368.48488828936934,372.80545863682073,1 45755U 20038AB  26137.52293147  .00033988  00000+0  33164-3 0  9991,2 45755  53.0455 222.0775 0003201 357.3884   2.7114 15.65902241327483
STARLINK-1493,45759,53.0473,0.0005823,15.61653371,378.9438592858032,386.81774061562555,1 45759U 20038AF  26137.75066700  .00046424  00000+0  53181-3 0  9993,2 45759  53.0473 230.0648 0005823 312.6854  47.3668 15.61653371327390
STARLINK-1494,45760,53.0389,0.0007076,15.9407132,286.18429844607454,295.62232429472624,1 45760U 20038AG  26137.91670139  .00255995  36364-4  68259-3 0  9994,2 45760  53.0389 162.7785 0007076   9.2261 131.3668 15.94071320  5812
STARLINK-1502,45764,53.046,0.0006221,15.57979808,389.2918657823757,397.7171421416042,1 45764U 20038AL  26137.56126730  .00049670  00000+0  65348-3 0  9992,2 45764  53.0460 234.2362 0006221 282.6197  77.4119 15.57979808327330
STARLINK-1470,45772,53.044,0.0002933,15.33631472,462.981332530454,466.9955099025401,1 45772U 20038AU  26137.61091640  .00018930  00000+0  58387-3 0  9998,2 45772  53.0440 212.9539 0002933 325.2512  34.8297 15.33631472327630
STARLINK-1482,45773,53.1583,0.0003121,15.35966512,455.91761969297477,460.184768363687,1 45773U 20038AV  26137.65492758  .00021423  00000+0  61210-3 0  9998,2 45773  53.1583 229.2821 0003121 314.3176  45.7571 15.35966512327421
STARLINK-1496,45780,53.0457,0.0007252,15.59463919,384.299852353367,394.1152088605586,1 45780U 20038BC  26137.45211286  .00028106  00000+0  35326-3 0  9993,2 45780  53.0457 205.8134 0007252   6.3651 353.7452 15.59463919327700
STARLINK-1513,45786,53.1591,0.0001109,15.31695427,469.994085164054,471.513169105152,1 45786U 20038BJ  26137.69616105  .00001056  00000+0  45805-4 0  9993,2 45786  53.1591 230.2740 0001109  84.8379 275.2749 15.31695427327410
STARLINK-1522,46027,53.061,0.0002622,15.12173139,527.762833067296,531.3852367339987,1 46027U 20055A   26137.81607969  .00009956  00000+0  58673-3 0  9996,2 46027  53.0610 174.1525 0002622 351.4087   8.6859 15.12173139319339
STARLINK-1523,46028,53.1602,0.0001175,15.30190878,474.43703413389994,476.04757827085814,1 46028U 20055B   26137.49466820  .00000493  00000+0  28769-4 0  9991,2 46028  53.1602 167.1114 0001175  87.9349 272.1786 15.30190878319439
STARLINK-1526,46029,53.1599,0.0001278,15.30184813,474.38455124919983,476.1362796285857,1 46029U 20055C   26137.35771594  .00004081  00000+0  14991-3 0  9992,2 46029  53.1599 167.7552 0001278  88.8080 271.3067 15.30184813319405
STARLINK-1555,46032,53.1605,0.000132,15.30178686,474.3740590464422,476.18336079386063,1 46032U 20055F   26137.79912959 -.00001458  00000+0 -37142-4 0  9997,2 46032  53.1605 165.6914 0001320  84.6320 275.4831 15.30178686319477
STARLINK-1556,46033,53.1593,0.0001141,15.30196331,474.4440556927857,476.00799313495736,1 46033U 20055G   26137.78225942  .00002077  00000+0  82222-4 0  9991,2 46033  53.1593 165.7852 0001141  88.6266 271.4865 15.30196331319447
STARLINK-1557,46034,53.1592,0.0001075,15.30193073,474.4990146998789,475.97248984161615,1 46034U 20055H   26137.78541639  .00000646  00000+0  33930-4 0  9998,2 46034  53.1592 165.7665 0001075  84.2545 275.8578 15.30193073319446
STARLINK-1558,46035,53.1602,0.0001166,15.30191268,474.4420378300292,476.0402456126785,1 46035U 20055J   26137.79279106 -.00000326  00000+0  11225-5 0  9997,2 46035  53.1602 165.7318 0001166  82.8426 277.2707 15.30191268319474
STARLINK-1560,46036,53.1592,0.0001135,15.30193344,474.4570853920677,476.01280082315316,1 46036U 20055K   26137.38721170  .00001060  00000+0  47921-4 0  9992,2 46036  53.1592 167.6234 0001135  85.5477 274.5653 15.30193344319414
STARLINK-1569,46039,53.1604,0.0001293,15.30190598,474.3570001879498,476.12928429273325,1 46039U 20055N   26137.79595363  .00000814  00000+0  39603-4 0  9997,2 46039  53.1604 165.7074 0001293  93.6683 266.4465 15.30190598319460
STARLINK-1582,46043,53.1578,0.0001258,15.3170379,469.8671101514201,471.5902847608986,1 46043U 20055S   26137.76867690  .00001228  00000+0  51332-4 0  9997,2 46043  53.1578 165.4679 0001258  89.1500 270.9645 15.31703790319467
STARLINK-1591,46045,53.1582,0.0001293,15.30191741,474.3535878044313,476.1258710266575,1 46045U 20055U   26137.37140872 -.00000356  00000+0  10593-6 0  9990,2 46045  53.1582 167.6882 0001293  98.4275 261.6872 15.30191741319381
STARLINK-1524,46047,53.1587,0.0001097,15.31706997,469.9678180938472,471.4704571304392,1 46047U 20055W   26137.73800561 -.00000489  00000+0 -39903-5 0  9993,2 46047  53.1587 152.9071 0001097  80.1116 280.0009 15.31706997319641
STARLINK-1527,46048,53.1606,0.0001259,15.31704766,469.8635162394712,471.58805988950553,1 46048U 20055X   26137.73333859  .00001066  00000+0  46097-4 0  9996,2 46048  53.1606 152.9118 0001259  91.2261 268.8884 15.31704766319614
STARLINK-1540,46051,53.1598,0.0001229,15.31666281,469.9987723178556,471.6822509902204,1 46051U 20055AA  26137.91670139  .00053174  00000+0  17149-2 0  9996,2 46051  53.1598 152.2630 0001229  90.6658 278.1021 15.31666281  5865
STARLINK-1541,46052,53.1589,0.0002103,15.77455424,336.2407215084904,339.0653828044278,1 46052U 20055AB  26137.82270324  .00096408  00000+0  56778-3 0  9998,2 46052  53.1589 143.9453 0002103  79.4621 280.6637 15.77455424319755
STARLINK-1543,46053,53.1605,0.0001654,15.31699247,469.60943525410767,471.87504450665983,1 46053U 20055AC  26137.75664559  .00000183  00000+0  17682-4 0  9995,2 46053  53.1605 152.8173 0001654  83.1224 276.9966 15.31699247319659
